{"type":"FeatureCollection","source":"USGS NLDI basins, simplified","features":[{"type":"Feature","id":"WS-Bronx","properties":{"id":"WS-Bronx","kind":"watershed","system":"Bronx","outlet_comid":26431899},"geometry":{"type":"MultiPolygon","coordinates":[[[[-73.8605,40.8157],[-73.8552,40.8119],[-73.8583,40.803],[-73.8737,40.8058],[-73.8853,40.8145],[-73.89,40.8211],[-73.8893,40.8393],[-73.8946,40.8419],[-73.8791,40.8655],[-73.8806,40.8755],[-73.8782,40.8779],[-73.8823,40.8862],[-73.8786,40.8958],[-73.873,40.8981],[-73.8728,40.9034],[-73.8789,40.9071],[-73.8729,40.9124],[-73.8704,40.9232],[-73.865,40.9279],[-73.8654,40.9335],[-73.8553,40.9462],[-73.8676,40.9453],[-73.8699,40.9502],[-73.8634,40.962],[-73.8639,40.9762],[-73.8567,40.9849],[-73.8553,40.9941],[-73.837,41.013],[-73.8325,41.0281],[-73.8266,41.0281],[-73.8246,41.0344],[-73.8201,41.0362],[-73.8161,41.0336],[-73.8172,41.0292],[-73.8112,41.0204],[-73.8059,41.0249],[-73.8131,41.038],[-73.8161,41.0529],[-73.8123,41.0564],[-73.8062,41.0557],[-73.7955,41.0665],[-73.8035,41.079],[-73.8037,41.0841],[-73.7985,41.0867],[-73.8003,41.0952],[-73.7851,41.0976],[-73.7856,41.1062],[-73.7818,41.1147],[-73.7676,41.1106],[-73.751,41.1228],[-73.7551,41.1367],[-73.7489,41.1551],[-73.7484,41.1511],[-73.74,41.1444],[-73.7352,41.1466],[-73.728,41.1317],[-73.7296,41.1274],[-73.7233,41.129],[-73.72,41.1238],[-73.7168,41.124],[-73.7147,41.1206],[-73.7197,41.1057],[-73.7119,41.1004],[-73.7042,41.0843],[-73.7099,41.0812],[-73.7129,41.0746],[-73.7102,41.071],[-73.7176,41.0597],[-73.7423,41.0741],[-73.7505,41.0713],[-73.7513,41.0596],[-73.7607,41.0442],[-73.7511,41.021],[-73.7702,41.0135],[-73.7828,40.9976],[-73.7831,40.9889],[-73.7976,40.9846],[-73.7973,40.9762],[-73.8073,40.9693],[-73.8212,40.9438],[-73.8203,40.938],[-73.8229,40.9363],[-73.8198,40.9274],[-73.8349,40.9132],[-73.8332,40.9023],[-73.838,40.8907],[-73.8483,40.8837],[-73.8535,40.8846],[-73.8624,40.8802],[-73.8663,40.8757],[-73.8569,40.866],[-73.8578,40.8453],[-73.8589,40.8423],[-73.879,40.834],[-73.8776,40.8253],[-73.8605,40.8157]]]]}},{"type":"Feature","id":"WS-Nissequogue","properties":{"id":"WS-Nissequogue","kind":"watershed","system":"Nissequogue","outlet_comid":9509774},"geometry":{"type":"MultiPolygon","coordinates":[[[[-73.244,40.8108],[-73.2605,40.8179],[-73.2797,40.8207],[-73.2829,40.8355],[-73.2895,40.8462],[-73.2855,40.8494],[-73.288,40.8568],[-73.2837,40.8651],[-73.2802,40.8661],[-73.2804,40.8735],[-73.2763,40.8821],[-73.2776,40.8888],[-73.2843,40.8886],[-73.2898,40.8978],[-73.2892,40.9085],[-73.281,40.9143],[-73.2751,40.9114],[-73.2703,40.9143],[-73.2574,40.9089],[-73.2365,40.9092],[-73.2183,40.9055],[-73.2053,40.9091],[-73.1922,40.905],[-73.1879,40.8995],[-73.1925,40.893],[-73.1908,40.8886],[-73.1766,40.8897],[-73.1634,40.8831],[-73.1684,40.8788],[-73.1676,40.873],[-73.1519,40.8526],[-73.1533,40.8369],[-73.1559,40.8352],[-73.1542,40.8217],[-73.1625,40.8147],[-73.1754,40.8134],[-73.1842,40.8182],[-73.2028,40.8095],[-73.234,40.8068],[-73.244,40.8108]]]]}},{"type":"Feature","id":"WS-Housatonic","properties":{"id":"WS-Housatonic","kind":"watershed","system":"Housatonic","outlet_comid":7718580},"geometry":{"type":"MultiPolygon","coordinates":[[[[-73.1108,41.1725],[-73.1253,41.1708],[-73.1446,41.1944],[-73.1347,41.2235],[-73.1572,41.2431],[-73.1613,41.2829],[-73.2072,41.2853],[-73.2343,41.309],[-73.2178,41.3366],[-73.2317,41.3477],[-73.2286,41.3588],[-73.235,41.3508],[-73.2743,41.3535],[-73.2773,41.3348],[-73.2993,41.3238],[-73.3262,41.3369],[-73.3298,41.3643],[-73.3628,41.365],[-73.3637,41.3405],[-73.3747,41.3518],[-73.4217,41.3359],[-73.442,41.3525],[-73.4434,41.3685],[-73.462,41.3605],[-73.4564,41.3457],[-73.4793,41.3589],[-73.5124,41.3453],[-73.5338,41.3662],[-73.5591,41.3673],[-73.5421,41.378],[-73.5418,41.4053],[-73.5304,41.4121],[-73.5397,41.419],[-73.5229,41.4238],[-73.5254,41.4366],[-73.5106,41.4376],[-73.528,41.4673],[-73.5073,41.476],[-73.5126,41.508],[-73.4947,41.5298],[-73.5293,41.5584],[-73.5392,41.5852],[-73.606,41.5559],[-73.6465,41.5533],[-73.6311,41.6136],[-73.652,41.6824],[-73.6373,41.6876],[-73.6374,41.7076],[-73.6748,41.7497],[-73.6299,41.7516],[-73.634,41.7709],[-73.6243,41.7782],[-73.6452,41.8003],[-73.6366,41.8261],[-73.6494,41.8605],[-73.6324,41.8902],[-73.6204,41.893],[-73.609,41.8775],[-73.5902,41.9026],[-73.5632,41.9454],[-73.5636,41.9628],[-73.5473,41.9716],[-73.547,42.0217],[-73.5188,42.0203],[-73.4911,42.0389],[-73.4723,42.0712],[-73.4321,42.0814],[-73.4382,42.1197],[-73.4646,42.1391],[-73.4789,42.1283],[-73.4908,42.1349],[-73.4856,42.1579],[-73.4679,42.1646],[-73.4777,42.1919],[-73.4671,42.2044],[-73.4722,42.2293],[-73.5129,42.2815],[-73.4931,42.3072],[-73.4976,42.3348],[-73.4674,42.3367],[-73.4684,42.365],[-73.4576,42.3649],[-73.4253,42.4033],[-73.4081,42.3935],[-73.3797,42.4123],[-73.3806,42.4288],[-73.3337,42.496],[-73.3137,42.5046],[-73.3195,42.5169],[-73.2621,42.5579],[-73.2759,42.5879],[-73.27,42.6029],[-73.2274,42.5773],[-73.2015,42.5846],[-73.2245,42.5066],[-73.2092,42.4864],[-73.1846,42.488],[-73.1517,42.5203],[-73.1171,42.5137],[-73.1147,42.5327],[-73.0871,42.5365],[-73.083,42.5465],[-73.0364,42.5289],[-73.0654,42.5033],[-73.0679,42.4855],[-73.0477,42.4731],[-73.0532,42.4358],[-73.0374,42.4272],[-73.0357,42.4117],[-73.0615,42.4136],[-73.0804,42.3994],[-73.0767,42.3847],[-73.1019,42.3737],[-73.1254,42.375],[-73.1383,42.391],[-73.1587,42.3852],[-73.153,42.3707],[-73.1771,42.3881],[-73.2006,42.383],[-73.1662,42.3621],[-73.1726,42.3584],[-73.1541,42.3355],[-73.1568,42.3094],[-73.1268,42.2811],[-73.1439,42.2802],[-73.1549,42.2606],[-73.1699,42.2582],[-73.1374,42.212],[-73.1457,42.1968],[-73.1355,42.1893],[-73.169,42.1825],[-73.1641,42.1533],[-73.1848,42.1471],[-73.1694,42.1153],[-73.1952,42.1045],[-73.1779,42.0751],[-73.192,42.0689],[-73.1781,42.0612],[-73.1728,42.0328],[-73.1855,42.0231],[-73.1668,41.9916],[-73.1808,41.9741],[-73.1981,41.972],[-73.2002,41.9509],[-73.1649,41.9328],[-73.143,41.9353],[-73.1447,41.908],[-73.1292,41.8998],[-73.122,41.9083],[-73.1166,41.8971],[-73.1253,41.8887],[-73.1002,41.8597],[-73.1139,41.8529],[-73.1138,41.8329],[-73.0773,41.8333],[-73.0604,41.8119],[-73.0315,41.8092],[-73.0183,41.792],[-73.0113,41.7697],[-73.0261,41.7606],[-73.0415,41.6893],[-73.0223,41.6682],[-72.976,41.6635],[-72.9598,41.6439],[-72.9615,41.62],[-72.951,41.6129],[-72.9591,41.5816],[-72.9464,41.5631],[-72.9842,41.5155],[-72.9584,41.4842],[-72.9657,41.4575],[-72.9756,41.4413],[-73.0067,41.4294],[-72.9979,41.4025],[-73.0042,41.3766],[-73.0306,41.3795],[-73.0491,41.3592],[-73.0362,41.3206],[-73.0418,41.2996],[-73.082,41.2405],[-73.0698,41.2197],[-73.1108,41.1725]]]]}},{"type":"Feature","id":"WS-Quinnipiac","properties":{"id":"WS-Quinnipiac","kind":"watershed","system":"Quinnipiac","outlet_comid":6178614},"geometry":{"type":"MultiPolygon","coordinates":[[[[-72.9219,41.3314],[-72.9355,41.3405],[-72.9268,41.3639],[-72.9314,41.3623],[-72.9291,41.3675],[-72.9322,41.372],[-72.9227,41.3734],[-72.9197,41.3769],[-72.9242,41.3858],[-72.924,41.3937],[-72.9284,41.3924],[-72.9292,41.3966],[-72.9343,41.3973],[-72.9401,41.4118],[-72.945,41.4134],[-72.9439,41.4239],[-72.9502,41.4285],[-72.9482,41.4321],[-72.9525,41.4326],[-72.9505,41.4382],[-72.9587,41.4407],[-72.9629,41.4372],[-72.9568,41.4508],[-72.9468,41.4594],[-72.9601,41.4637],[-72.9628,41.471],[-72.9657,41.4712],[-72.9647,41.478],[-72.9584,41.4842],[-72.9622,41.4918],[-72.9788,41.4992],[-72.9781,41.5033],[-72.984,41.5126],[-72.9833,41.5165],[-72.9745,41.5187],[-72.9719,41.5228],[-72.9765,41.5285],[-72.964,41.5326],[-72.9567,41.5466],[-72.9592,41.5517],[-72.9474,41.5578],[-72.9464,41.5615],[-72.949,41.5724],[-72.9591,41.5816],[-72.9598,41.5861],[-72.9552,41.5866],[-72.9558,41.6032],[-72.951,41.6129],[-72.9588,41.6156],[-72.9615,41.62],[-72.9584,41.6279],[-72.96,41.6366],[-72.9586,41.6422],[-72.9542,41.6424],[-72.9485,41.6365],[-72.9477,41.6485],[-72.9295,41.6609],[-72.9139,41.6571],[-72.9093,41.6595],[-72.8938,41.6571],[-72.8902,41.664],[-72.8581,41.673],[-72.8575,41.6798],[-72.8517,41.6871],[-72.8382,41.6887],[-72.8369,41.698],[-72.83,41.7],[-72.8287,41.6939],[-72.8326,41.6901],[-72.8327,41.6845],[-72.8256,41.6827],[-72.8214,41.6931],[-72.8137,41.6937],[-72.8054,41.682],[-72.8073,41.6733],[-72.8136,41.6664],[-72.8287,41.6641],[-72.8375,41.6589],[-72.8328,41.646],[-72.843,41.6417],[-72.8424,41.6352],[-72.8312,41.6226],[-72.8303,41.6079],[-72.8238,41.6039],[-72.8302,41.597],[-72.832,41.5841],[-72.8428,41.569],[-72.8439,41.5598],[-72.8377,41.5587],[-72.8353,41.5547],[-72.829,41.5554],[-72.8269,41.5522],[-72.8164,41.5668],[-72.8096,41.5711],[-72.8044,41.568],[-72.7969,41.5782],[-72.7907,41.5746],[-72.794,41.5683],[-72.7901,41.5641],[-72.7819,41.5629],[-72.7812,41.5597],[-72.7725,41.565],[-72.767,41.5735],[-72.7628,41.5733],[-72.7563,41.5804],[-72.7521,41.5791],[-72.7596,41.5584],[-72.7507,41.561],[-72.7473,41.5578],[-72.75,41.5503],[-72.7471,41.5441],[-72.7407,41.548],[-72.7388,41.5464],[-72.7444,41.5344],[-72.7381,41.5309],[-72.7385,41.5241],[-72.7442,41.5199],[-72.7471,41.5058],[-72.7431,41.4835],[-72.7331,41.4705],[-72.7361,41.4649],[-72.7332,41.4618],[-72.7362,41.4601],[-72.7415,41.4393],[-72.7446,41.4386],[-72.7466,41.4319],[-72.7516,41.4354],[-72.7572,41.4314],[-72.7657,41.4348],[-72.7705,41.433],[-72.7749,41.4137],[-72.7901,41.4132],[-72.7914,41.3992],[-72.7983,41.3971],[-72.8094,41.367],[-72.815,41.3637],[-72.8123,41.3591],[-72.8265,41.3521],[-72.8263,41.3387],[-72.8501,41.3403],[-72.8527,41.3341],[-72.8587,41.331],[-72.8602,41.3199],[-72.8565,41.3148],[-72.8637,41.3019],[-72.8702,41.2992],[-72.8716,41.3038],[-72.8775,41.3005],[-72.8781,41.3042],[-72.8812,41.3045],[-72.8916,41.2945],[-72.9054,41.2983],[-72.9229,41.3177],[-72.9219,41.3314]]]]}},{"type":"Feature","id":"WS-Connecticut","properties":{"id":"WS-Connecticut","kind":"watershed","system":"Connecticut","outlet_comid":7703046},"geometry":{"type":"MultiPolygon","coordinates":[[[[-72.3827,41.2949],[-72.3751,41.3194],[-72.3939,41.3316],[-72.4239,41.3194],[-72.4395,41.3374],[-72.4542,41.3194],[-72.5081,41.3359],[-72.525,41.3623],[-72.5164,41.378],[-72.5614,41.4396],[-72.5851,41.4288],[-72.6372,41.4733],[-72.6837,41.4051],[-72.7402,41.4254],[-72.7388,41.5464],[-72.7596,41.5584],[-72.7521,41.5791],[-72.7812,41.5597],[-72.7969,41.5782],[-72.8269,41.5522],[-72.8439,41.5598],[-72.8238,41.6039],[-72.843,41.6417],[-72.8085,41.6711],[-72.8104,41.691],[-72.8327,41.6845],[-72.833,41.6998],[-72.8938,41.6571],[-72.932,41.66],[-72.9501,41.6362],[-72.976,41.6635],[-73.0223,41.6682],[-73.0423,41.692],[-73.0134,41.7844],[-73.0773,41.8333],[-73.1138,41.8329],[-73.1002,41.8597],[-73.1253,41.8887],[-73.122,41.9083],[-73.1447,41.908],[-73.143,41.9353],[-73.2002,41.9509],[-73.1981,41.972],[-73.1668,41.9916],[-73.1855,42.0231],[-73.1728,42.0328],[-73.1781,42.0612],[-73.192,42.0689],[-73.1779,42.0751],[-73.1952,42.1045],[-73.1694,42.1153],[-73.1848,42.1471],[-73.1641,42.1533],[-73.169,42.1825],[-73.1355,42.1893],[-73.1699,42.2582],[-73.1268,42.2811],[-73.1568,42.3094],[-73.1609,42.3448],[-73.1421,42.3624],[-73.1587,42.3852],[-73.1005,42.3739],[-73.0615,42.4136],[-73.0343,42.4132],[-73.0532,42.4358],[-73.0477,42.4731],[-73.0679,42.4855],[-73.0364,42.5289],[-73.0679,42.5676],[-73.0546,42.6144],[-73.0753,42.6631],[-72.9996,42.8155],[-73.0486,42.8245],[-73.0622,42.8137],[-73.0833,42.8405],[-73.0532,42.8906],[-73.0722,42.9245],[-73.0566,42.9644],[-73.0726,42.9964],[-73.0093,43.0382],[-73.0169,43.0661],[-72.9815,43.1304],[-72.9934,43.1697],[-72.9427,43.2081],[-72.9269,43.3177],[-72.9082,43.3128],[-72.8746,43.3609],[-72.8596,43.3539],[-72.8435,43.374],[-72.7857,43.3807],[-72.798,43.4421],[-72.7756,43.4463],[-72.769,43.4809],[-72.7758,43.5059],[-72.8113,43.5253],[-72.8046,43.5841],[-72.8361,43.6394],[-72.83,43.6694],[-72.8571,43.6822],[-72.8886,43.7509],[-72.9712,43.8297],[-72.9631,43.8466],[-72.9815,43.8798],[-72.9178,44.02],[-72.866,44.0417],[-72.8155,44.0376],[-72.8011,44.0566],[-72.8079,44.0773],[-72.7841,44.0988],[-72.7113,44.0919],[-72.7031,44.0792],[-72.7228,44.062],[-72.7105,44.0451],[-72.6664,44.0664],[-72.6357,44.0478],[-72.5802,44.1071],[-72.539,44.069],[-72.5114,44.074],[-72.4932,44.0982],[-72.3983,44.0727],[-72.4033,44.0958],[-72.3688,44.1315],[-72.3711,44.1518],[-72.336,44.1701],[-72.3498,44.1963],[-72.326,44.2064],[-72.356,44.234],[-72.3146,44.2429],[-72.326,44.2697],[-72.3072,44.2735],[-72.3355,44.3031],[-72.2963,44.3],[-72.2873,44.3238],[-72.2225,44.3215],[-72.2303,44.4056],[-72.2623,44.4119],[-72.2701,44.4347],[-72.2402,44.4511],[-72.2489,44.466],[-72.2243,44.519],[-72.1663,44.533],[-72.1775,44.5395],[-72.1809,44.6313],[-72.1947,44.6388],[-72.1832,44.6542],[-72.0716,44.6836],[-72.0535,44.7132],[-72.0255,44.7086],[-72.0312,44.7329],[-72.0065,44.7368],[-71.984,44.7684],[-71.8926,44.7506],[-71.8281,44.8226],[-71.8633,44.8568],[-71.8481,44.883],[-71.8544,44.9157],[-71.8149,44.91],[-71.7644,44.9415],[-71.7293,44.9244],[-71.7265,44.9415],[-71.6761,44.959],[-71.6515,44.9461],[-71.7275,45.0283],[-71.6832,45.0907],[-71.6141,45.0943],[-71.6325,45.139],[-71.5731,45.1312],[-71.5617,45.1662],[-71.5156,45.1627],[-71.4862,45.2128],[-71.4656,45.2078],[-71.443,45.2385],[-71.3846,45.2341],[-71.3564,45.2543],[-71.3633,45.268],[-71.2835,45.3025],[-71.231,45.2505],[-71.0894,45.2349],[-71.0726,45.2045],[-71.1012,45.1836],[-71.0873,45.1531],[-71.1038,45.1299],[-71.1406,45.1211],[-71.1467,45.0988],[-71.1719,45.0991],[-71.2059,45.0652],[-71.2392,44.9803],[-71.2774,44.9855],[-71.3006,44.9543],[-71.3168,44.9626],[-71.3414,44.9474],[-71.3208,44.9372],[-71.3129,44.9047],[-71.2797,44.8985],[-71.3182,44.836],[-71.3433,44.8335],[-71.314,44.8012],[-71.3099,44.756],[-71.2752,44.7354],[-71.3047,44.7049],[-71.2915,44.6375],[-71.2627,44.6245],[-71.2639,44.6076],[-71.1833,44.524],[-71.1845,44.5073],[-71.2633,44.5142],[-71.2859,44.4622],[-71.271,44.4362],[-71.2938,44.4046],[-71.3534,44.3695],[-71.3009,44.3258],[-71.3167,44.3075],[-71.3082,44.2607],[-71.3721,44.2212],[-71.4142,44.2184],[-71.4472,44.1898],[-71.5155,44.1979],[-71.5326,44.1684],[-71.5927,44.1941],[-71.6284,44.1832],[-71.6446,44.1609],[-71.6825,44.1748],[-71.735,44.1374],[-71.7748,44.0467],[-71.8267,44.0309],[-71.8501,43.9984],[-71.8729,44.0],[-71.901,43.976],[-71.9297,43.9861],[-71.9496,43.9479],[-71.9976,43.9542],[-72.0293,43.9351],[-72.0204,43.8779],[-71.996,43.8586],[-72.0005,43.8386],[-72.0111,43.8456],[-72.0322,43.8256],[-71.9782,43.7803],[-71.9884,43.7539],[-71.9518,43.7373],[-71.9485,43.6846],[-71.9159,43.6774],[-71.9104,43.6566],[-71.9181,43.6425],[-71.942,43.6473],[-71.9969,43.6227],[-71.9942,43.6001],[-72.0231,43.5927],[-72.0159,43.5321],[-71.996,43.5125],[-72.0209,43.4901],[-71.9924,43.4309],[-72.0286,43.4147],[-71.9908,43.3624],[-72.0355,43.3102],[-72.0648,43.3098],[-72.0794,43.235],[-72.1168,43.1861],[-72.1066,43.1551],[-72.1428,43.116],[-72.1057,43.054],[-72.1184,43.0455],[-72.1017,42.9966],[-72.1153,42.9502],[-72.066,42.9021],[-72.1177,42.8314],[-72.0724,42.7938],[-72.0504,42.7955],[-72.0452,42.7422],[-71.9881,42.7742],[-71.9784,42.7572],[-71.9153,42.7614],[-71.9195,42.732],[-71.8929,42.6965],[-71.9286,42.6746],[-71.9064,42.6496],[-71.9438,42.6515],[-71.9408,42.6266],[-71.9682,42.633],[-71.9814,42.5897],[-71.9616,42.5946],[-71.9396,42.5606],[-71.944,42.5225],[-71.9107,42.519],[-71.8869,42.4705],[-71.9258,42.4765],[-71.9295,42.4139],[-71.9531,42.4085],[-71.9326,42.3833],[-71.9528,42.3755],[-71.9182,42.2819],[-71.9392,42.2699],[-71.9364,42.2504],[-71.9693,42.2562],[-71.9737,42.2071],[-72.0017,42.174],[-72.0554,42.1754],[-72.0799,42.1549],[-72.0919,42.1666],[-72.1124,42.1441],[-72.1128,42.1829],[-72.1517,42.1936],[-72.2421,42.1229],[-72.243,42.0419],[-72.2684,42.0351],[-72.3017,42.0642],[-72.3452,42.0405],[-72.3455,42.0177],[-72.4009,41.9969],[-72.4028,41.9685],[-72.3667,41.9136],[-72.454,41.7781],[-72.4373,41.7719],[-72.4417,41.7191],[-72.427,41.6992],[-72.4045,41.705],[-72.3253,41.6738],[-72.3265,41.5893],[-72.3061,41.5709],[-72.3061,41.5449],[-72.2776,41.5157],[-72.249,41.5113],[-72.2441,41.4821],[-72.2308,41.4792],[-72.2577,41.4678],[-72.2543,41.4257],[-72.2828,41.3975],[-72.2651,41.3729],[-72.285,41.3055],[-72.2998,41.3095],[-72.3135,41.2781],[-72.3681,41.2645],[-72.3877,41.2671],[-72.3747,41.2795],[-72.3827,41.2949]]]]}},{"type":"Feature","id":"WS-Thames","properties":{"id":"WS-Thames","kind":"watershed","system":"Thames","outlet_comid":6170754},"geometry":{"type":"MultiPolygon","coordinates":[[[[-72.0881,41.3199],[-72.1026,41.3284],[-72.1283,41.3716],[-72.1457,41.3828],[-72.1577,41.4107],[-72.1926,41.4251],[-72.1962,41.4468],[-72.1902,41.4557],[-72.2071,41.4756],[-72.2435,41.4813],[-72.2359,41.4864],[-72.2444,41.492],[-72.2403,41.501],[-72.249,41.5113],[-72.2776,41.5157],[-72.2792,41.5242],[-72.3044,41.542],[-72.3061,41.5709],[-72.32,41.5749],[-72.3265,41.5893],[-72.3174,41.5944],[-72.3185,41.626],[-72.3309,41.6377],[-72.3214,41.6559],[-72.3281,41.6607],[-72.3253,41.6738],[-72.3628,41.6934],[-72.3866,41.6905],[-72.4045,41.705],[-72.427,41.6992],[-72.4417,41.7191],[-72.4332,41.7213],[-72.4373,41.7719],[-72.454,41.7781],[-72.4303,41.8229],[-72.4139,41.8422],[-72.4036,41.8428],[-72.4036,41.8603],[-72.3717,41.8952],[-72.3667,41.9136],[-72.3795,41.9206],[-72.3754,41.9264],[-72.3891,41.9431],[-72.3873,41.9531],[-72.4034,41.9703],[-72.3928,41.9873],[-72.4005,41.9944],[-72.3954,42.0069],[-72.3704,42.0117],[-72.37,42.0177],[-72.3455,42.0177],[-72.3452,42.0405],[-72.3248,42.0416],[-72.303,42.0545],[-72.3006,42.0644],[-72.2684,42.0351],[-72.243,42.0419],[-72.2344,42.0621],[-72.244,42.069],[-72.237,42.1058],[-72.2421,42.1229],[-72.1947,42.1654],[-72.1687,42.1713],[-72.1656,42.184],[-72.1517,42.1936],[-72.1446,42.193],[-72.1433,42.1816],[-72.1128,42.1829],[-72.1212,42.1599],[-72.1124,42.1441],[-72.0919,42.1666],[-72.0839,42.1661],[-72.0866,42.1549],[-72.0799,42.1549],[-72.0554,42.1754],[-72.0363,42.1663],[-72.0142,42.1838],[-72.0017,42.174],[-71.9835,42.2031],[-71.9737,42.2071],[-71.9812,42.2198],[-71.9693,42.2562],[-71.9364,42.2504],[-71.9307,42.2635],[-71.9392,42.2699],[-71.9218,42.2813],[-71.9105,42.2746],[-71.9162,42.2618],[-71.8939,42.2444],[-71.8886,42.2304],[-71.8881,42.2141],[-71.8966,42.2027],[-71.8895,42.2013],[-71.8865,42.1796],[-71.8742,42.1783],[-71.8656,42.1666],[-71.8391,42.1687],[-71.8327,42.1512],[-71.8123,42.1345],[-71.8126,42.103],[-71.822,42.0945],[-71.814,42.0888],[-71.8269,42.0775],[-71.8202,42.0687],[-71.8252,42.0659],[-71.8134,42.0602],[-71.8134,42.0452],[-71.7851,42.0494],[-71.7847,42.0389],[-71.7689,42.0427],[-71.7607,42.0296],[-71.7601,42.0223],[-71.7717,42.0261],[-71.7809,42.0098],[-71.7788,41.9973],[-71.7683,41.9922],[-71.7776,41.9757],[-71.7704,41.9633],[-71.7749,41.9563],[-71.7448,41.9348],[-71.7539,41.9282],[-71.7507,41.9149],[-71.7597,41.9075],[-71.7559,41.8873],[-71.7673,41.8751],[-71.7617,41.869],[-71.7823,41.8414],[-71.7681,41.8089],[-71.771,41.7949],[-71.7337,41.774],[-71.7108,41.7696],[-71.719,41.7546],[-71.7134,41.736],[-71.7201,41.7206],[-71.6912,41.6993],[-71.6903,41.6818],[-71.7075,41.6738],[-71.6953,41.6587],[-71.7319,41.6471],[-71.7631,41.6631],[-71.7806,41.6635],[-71.791,41.6816],[-71.8056,41.6766],[-71.8065,41.6577],[-71.8184,41.6662],[-71.8356,41.6626],[-71.8408,41.6713],[-71.8487,41.6691],[-71.8474,41.6409],[-71.8035,41.6304],[-71.8008,41.6142],[-71.7914,41.6063],[-71.7952,41.5954],[-71.7847,41.5941],[-71.7707,41.5702],[-71.8194,41.5514],[-71.8291,41.5072],[-71.8445,41.5052],[-71.855,41.5135],[-71.8718,41.4999],[-71.882,41.5038],[-71.898,41.4869],[-71.9086,41.4936],[-71.9245,41.4829],[-71.9402,41.4844],[-71.9394,41.4754],[-71.9596,41.4636],[-71.9623,41.4534],[-71.9897,41.4589],[-72.0165,41.4432],[-72.0537,41.4436],[-72.0471,41.4287],[-72.0601,41.4214],[-72.0543,41.4014],[-72.0711,41.4018],[-72.072,41.3843],[-72.0818,41.381],[-72.0673,41.3313],[-72.0881,41.3199]]]]}},{"type":"Feature","id":"BRNX","properties":{"id":"BRNX","kind":"gauged","river":"Bronx","watershed":"WS-Bronx","usgs_id":"01302020"},"geometry":{"type":"MultiPolygon","coordinates":[[[[-73.887,40.8535],[-73.8788,40.8673],[-73.8812,40.8897],[-73.8776,40.8969],[-73.873,40.8981],[-73.8728,40.9034],[-73.8789,40.9071],[-73.8729,40.9124],[-73.8704,40.9232],[-73.865,40.9279],[-73.8654,40.9335],[-73.8553,40.9462],[-73.8676,40.9453],[-73.8699,40.9502],[-73.8634,40.962],[-73.8639,40.9762],[-73.8567,40.9849],[-73.8578,40.9895],[-73.837,41.013],[-73.8325,41.0281],[-73.8266,41.0281],[-73.8246,41.0344],[-73.8173,41.0349],[-73.8154,41.0247],[-73.8112,41.0204],[-73.8059,41.0249],[-73.8131,41.038],[-73.8161,41.0529],[-73.8123,41.0564],[-73.8062,41.0557],[-73.7955,41.0665],[-73.8035,41.079],[-73.8037,41.0841],[-73.7985,41.0867],[-73.8003,41.0952],[-73.7851,41.0976],[-73.7856,41.1062],[-73.7818,41.1147],[-73.7676,41.1106],[-73.751,41.1228],[-73.7551,41.1367],[-73.7489,41.1551],[-73.7484,41.1511],[-73.74,41.1444],[-73.7352,41.1466],[-73.728,41.1317],[-73.7296,41.1274],[-73.7233,41.129],[-73.7147,41.1206],[-73.7197,41.1057],[-73.7119,41.1004],[-73.7041,41.0846],[-73.7099,41.0812],[-73.7129,41.0746],[-73.7102,41.071],[-73.7176,41.0597],[-73.7423,41.0741],[-73.7505,41.0713],[-73.7513,41.0596],[-73.7607,41.0442],[-73.7511,41.021],[-73.7702,41.0135],[-73.7828,40.9976],[-73.7831,40.9889],[-73.7976,40.9846],[-73.7973,40.9762],[-73.8073,40.9693],[-73.8212,40.9438],[-73.8203,40.938],[-73.8229,40.9363],[-73.8198,40.9274],[-73.8349,40.9132],[-73.8332,40.9023],[-73.838,40.8907],[-73.8483,40.8837],[-73.8535,40.8846],[-73.8624,40.8802],[-73.8659,40.873],[-73.8598,40.8666],[-73.8718,40.8637],[-73.8706,40.8611],[-73.8749,40.8556],[-73.887,40.8535]]]]}},{"type":"Feature","id":"NISS","properties":{"id":"NISS","kind":"gauged","river":"Nissequogue","watershed":"WS-Nissequogue","usgs_id":"01304000"},"geometry":{"type":"MultiPolygon","coordinates":[[[[-73.2729,40.8194],[-73.2797,40.8207],[-73.2829,40.8355],[-73.2895,40.8462],[-73.2855,40.8494],[-73.288,40.8568],[-73.2837,40.8651],[-73.2802,40.8661],[-73.2804,40.8735],[-73.2763,40.8821],[-73.2776,40.8888],[-73.2717,40.8873],[-73.2581,40.8959],[-73.2522,40.8943],[-73.253,40.8905],[-73.2473,40.8865],[-73.2327,40.8825],[-73.2353,40.8767],[-73.2317,40.8653],[-73.2215,40.8619],[-73.2154,40.8513],[-73.2049,40.8542],[-73.195,40.8636],[-73.1838,40.8665],[-73.1766,40.8717],[-73.1707,40.8827],[-73.1665,40.8851],[-73.1634,40.8831],[-73.1684,40.8788],[-73.1676,40.873],[-73.1612,40.8673],[-73.151,40.8472],[-73.1559,40.8352],[-73.1542,40.8217],[-73.1625,40.8147],[-73.1754,40.8134],[-73.1842,40.8182],[-73.2028,40.8095],[-73.234,40.8068],[-73.2582,40.8147],[-73.2605,40.8179],[-73.2729,40.8194]]]]}},{"type":"Feature","id":"HOUS","properties":{"id":"HOUS","kind":"gauged","river":"Housatonic","watershed":"WS-Housatonic","usgs_id":"01205500"},"geometry":{"type":"MultiPolygon","coordinates":[[[[-73.2286,41.3588],[-73.235,41.3508],[-73.2494,41.3584],[-73.2743,41.3535],[-73.2773,41.3348],[-73.2993,41.3238],[-73.3262,41.3369],[-73.3298,41.3643],[-73.3628,41.365],[-73.3637,41.3405],[-73.3747,41.3518],[-73.3997,41.3385],[-73.4108,41.3467],[-73.4217,41.3359],[-73.427,41.3493],[-73.442,41.3525],[-73.4434,41.3685],[-73.462,41.3605],[-73.4564,41.3457],[-73.4793,41.3589],[-73.5124,41.3453],[-73.5338,41.3662],[-73.5591,41.3673],[-73.5421,41.378],[-73.5418,41.4053],[-73.5304,41.4121],[-73.5397,41.419],[-73.5229,41.4238],[-73.5254,41.4366],[-73.5106,41.4376],[-73.528,41.4673],[-73.5073,41.476],[-73.5126,41.508],[-73.4947,41.5298],[-73.5293,41.5584],[-73.5392,41.5852],[-73.5541,41.5716],[-73.5803,41.574],[-73.606,41.5559],[-73.6465,41.5533],[-73.6311,41.6136],[-73.6436,41.6321],[-73.6362,41.6425],[-73.652,41.6824],[-73.6373,41.6876],[-73.6374,41.7076],[-73.6748,41.7497],[-73.6299,41.7516],[-73.634,41.7709],[-73.6243,41.7782],[-73.6452,41.8003],[-73.6366,41.8261],[-73.6479,41.8367],[-73.641,41.8494],[-73.6494,41.8605],[-73.6324,41.8902],[-73.6204,41.893],[-73.609,41.8775],[-73.5902,41.9026],[-73.5859,41.9218],[-73.5632,41.9454],[-73.5636,41.9628],[-73.5473,41.9716],[-73.547,42.0217],[-73.5188,42.0203],[-73.4911,42.0389],[-73.4723,42.0712],[-73.4321,42.0814],[-73.4382,42.1197],[-73.4646,42.1391],[-73.4789,42.1283],[-73.4908,42.1349],[-73.4856,42.1579],[-73.4679,42.1646],[-73.4777,42.1919],[-73.4671,42.2044],[-73.4722,42.2293],[-73.5129,42.2815],[-73.4931,42.3072],[-73.4976,42.3348],[-73.4674,42.3367],[-73.4747,42.35],[-73.4684,42.365],[-73.4576,42.3649],[-73.4253,42.4033],[-73.4081,42.3935],[-73.3797,42.4123],[-73.3806,42.4288],[-73.3364,42.4803],[-73.3337,42.496],[-73.3137,42.5046],[-73.3195,42.5169],[-73.2621,42.5579],[-73.2759,42.5879],[-73.27,42.6029],[-73.2274,42.5773],[-73.2015,42.5846],[-73.2245,42.5066],[-73.2092,42.4864],[-73.1846,42.488],[-73.1517,42.5203],[-73.1171,42.5137],[-73.1147,42.5327],[-73.0931,42.5422],[-73.0871,42.5365],[-73.083,42.5465],[-73.0364,42.5289],[-73.0425,42.5146],[-73.0654,42.5033],[-73.0679,42.4855],[-73.0477,42.4731],[-73.0535,42.4486],[-73.0458,42.4385],[-73.0532,42.4358],[-73.0374,42.4272],[-73.0357,42.4117],[-73.0615,42.4136],[-73.0804,42.3994],[-73.0767,42.3847],[-73.1019,42.3737],[-73.1254,42.375],[-73.1383,42.391],[-73.1587,42.3852],[-73.153,42.3707],[-73.1771,42.3881],[-73.2006,42.383],[-73.1662,42.3621],[-73.1726,42.3584],[-73.1541,42.3355],[-73.1568,42.3094],[-73.1268,42.2811],[-73.1439,42.2802],[-73.1569,42.2702],[-73.1549,42.2606],[-73.1699,42.2582],[-73.1374,42.212],[-73.1457,42.1968],[-73.1355,42.1893],[-73.169,42.1825],[-73.1641,42.1533],[-73.1848,42.1471],[-73.1694,42.1153],[-73.1743,42.1085],[-73.1887,42.1149],[-73.1952,42.1045],[-73.1779,42.0751],[-73.192,42.0689],[-73.1781,42.0612],[-73.1831,42.0507],[-73.1728,42.0328],[-73.1845,42.029],[-73.1843,42.0171],[-73.1668,41.9916],[-73.1808,41.9741],[-73.1981,41.972],[-73.1993,41.9487],[-73.2387,41.95],[-73.2208,41.9236],[-73.234,41.911],[-73.2229,41.8958],[-73.2296,41.8893],[-73.2105,41.8705],[-73.1923,41.8165],[-73.1733,41.7986],[-73.1838,41.7913],[-73.1671,41.7524],[-73.1717,41.7287],[-73.1787,41.7073],[-73.2011,41.6975],[-73.2003,41.6879],[-73.1787,41.6532],[-73.1502,41.6535],[-73.1521,41.6328],[-73.1361,41.6038],[-73.1473,41.5922],[-73.1515,41.5517],[-73.1703,41.5403],[-73.1767,41.5195],[-73.1738,41.4845],[-73.1845,41.4784],[-73.1764,41.4681],[-73.1951,41.4605],[-73.1738,41.4422],[-73.161,41.4038],[-73.164,41.3819],[-73.1838,41.3625],[-73.1963,41.3649],[-73.2069,41.3337],[-73.2317,41.3477],[-73.2286,41.3588]]]]}},{"type":"Feature","id":"NAUG","properties":{"id":"NAUG","kind":"gauged","river":"Naugatuck","watershed":"WS-Housatonic","usgs_id":"01208500"},"geometry":{"type":"MultiPolygon","coordinates":[[[[-73.08,41.4379],[-73.0818,41.451],[-73.079,41.4535],[-73.0847,41.4555],[-73.0841,41.4707],[-73.0952,41.4768],[-73.1037,41.4746],[-73.1085,41.4666],[-73.1219,41.4813],[-73.125,41.4909],[-73.1491,41.5118],[-73.1488,41.5222],[-73.1423,41.5316],[-73.1358,41.5328],[-73.1432,41.5371],[-73.1532,41.558],[-73.1482,41.5593],[-73.15,41.571],[-73.1448,41.5735],[-73.1473,41.5922],[-73.1399,41.5951],[-73.1361,41.6038],[-73.1521,41.6328],[-73.147,41.6371],[-73.1493,41.6521],[-73.1634,41.6596],[-73.1696,41.6576],[-73.1691,41.6537],[-73.1787,41.6532],[-73.1882,41.6776],[-73.2003,41.6879],[-73.2011,41.6975],[-73.1895,41.6967],[-73.1787,41.7073],[-73.1717,41.7287],[-73.1671,41.7524],[-73.179,41.7708],[-73.1744,41.7754],[-73.1749,41.785],[-73.1838,41.7913],[-73.1733,41.7986],[-73.1806,41.8121],[-73.1923,41.8165],[-73.1951,41.8222],[-73.192,41.8298],[-73.1998,41.8367],[-73.2105,41.8705],[-73.2296,41.8893],[-73.2229,41.8958],[-73.234,41.911],[-73.2208,41.9236],[-73.2223,41.9309],[-73.231,41.9329],[-73.2303,41.9387],[-73.2381,41.9502],[-73.1933,41.9498],[-73.1927,41.9435],[-73.1761,41.9438],[-73.1649,41.9328],[-73.1539,41.9308],[-73.1493,41.9358],[-73.143,41.9353],[-73.148,41.9255],[-73.1433,41.9184],[-73.1456,41.9095],[-73.1292,41.8998],[-73.122,41.9083],[-73.1166,41.8971],[-73.1245,41.8931],[-73.1253,41.8887],[-73.1176,41.8717],[-73.1002,41.8597],[-73.1087,41.8525],[-73.1139,41.8529],[-73.1138,41.8329],[-73.0773,41.8333],[-73.0604,41.8119],[-73.0549,41.8147],[-73.0443,41.8121],[-73.0423,41.8079],[-73.0315,41.8092],[-73.0304,41.7976],[-73.0216,41.7951],[-73.0134,41.7844],[-73.0113,41.7697],[-73.0261,41.7606],[-73.0274,41.7549],[-73.022,41.7463],[-73.0394,41.7138],[-73.0343,41.6958],[-73.0402,41.6943],[-73.0415,41.6893],[-73.0223,41.6682],[-72.9977,41.6669],[-72.9934,41.6619],[-72.976,41.6635],[-72.9724,41.6606],[-72.9736,41.6534],[-72.9643,41.6498],[-72.9586,41.6422],[-72.9615,41.62],[-72.951,41.6129],[-72.9558,41.6032],[-72.9552,41.5866],[-72.9598,41.5861],[-72.949,41.5724],[-72.9464,41.5615],[-72.9592,41.5517],[-72.9567,41.5466],[-72.9649,41.5312],[-72.9765,41.5285],[-72.9719,41.5228],[-72.9736,41.5193],[-72.9842,41.5155],[-72.9788,41.4992],[-72.9622,41.4918],[-72.9584,41.4842],[-72.9703,41.4628],[-72.9657,41.4575],[-72.9733,41.4527],[-72.9756,41.4413],[-72.9819,41.4393],[-72.9909,41.4426],[-72.9943,41.4464],[-72.9897,41.449],[-72.9973,41.4502],[-72.9996,41.4559],[-73.0182,41.4602],[-73.0427,41.4549],[-73.0428,41.448],[-73.06,41.4365],[-73.0693,41.4399],[-73.0734,41.4342],[-73.08,41.4379]]]]}},{"type":"Feature","id":"QUIN","properties":{"id":"QUIN","kind":"gauged","river":"Quinnipiac","watershed":"WS-Quinnipiac","usgs_id":"01196500"},"geometry":{"type":"MultiPolygon","coordinates":[[[[-72.8418,41.4515],[-72.8458,41.4549],[-72.843,41.4669],[-72.8569,41.4662],[-72.858,41.4743],[-72.8648,41.4753],[-72.8783,41.4705],[-72.886,41.4727],[-72.8817,41.4825],[-72.8828,41.4904],[-72.8763,41.4929],[-72.8834,41.4944],[-72.8836,41.5013],[-72.9031,41.5014],[-72.9043,41.5055],[-72.9163,41.5128],[-72.9163,41.5196],[-72.9209,41.5211],[-72.9349,41.5052],[-72.9392,41.505],[-72.9452,41.4859],[-72.9542,41.4875],[-72.9584,41.4842],[-72.9622,41.4918],[-72.9788,41.4992],[-72.9842,41.5155],[-72.9736,41.5193],[-72.9719,41.5228],[-72.9765,41.5285],[-72.9649,41.5312],[-72.9567,41.5466],[-72.9592,41.5517],[-72.9474,41.5578],[-72.9464,41.5615],[-72.949,41.5724],[-72.9585,41.5808],[-72.9598,41.5861],[-72.9552,41.5866],[-72.9558,41.6032],[-72.951,41.6129],[-72.9588,41.6156],[-72.9615,41.62],[-72.9584,41.6279],[-72.9586,41.6422],[-72.9527,41.6416],[-72.9485,41.6365],[-72.9477,41.6485],[-72.9295,41.6609],[-72.9139,41.6571],[-72.9093,41.6595],[-72.8938,41.6571],[-72.8935,41.6621],[-72.8902,41.664],[-72.8581,41.673],[-72.8575,41.6798],[-72.8517,41.6871],[-72.8382,41.6887],[-72.8369,41.698],[-72.83,41.7],[-72.8287,41.6939],[-72.8326,41.6901],[-72.8327,41.6845],[-72.8256,41.6827],[-72.8214,41.6931],[-72.8137,41.6937],[-72.8054,41.682],[-72.8073,41.6733],[-72.8136,41.6664],[-72.8287,41.6641],[-72.8375,41.6589],[-72.8328,41.646],[-72.843,41.6417],[-72.8424,41.6352],[-72.8312,41.6226],[-72.8303,41.6079],[-72.8238,41.6039],[-72.8302,41.597],[-72.832,41.5841],[-72.8428,41.569],[-72.8439,41.5598],[-72.8377,41.5587],[-72.8353,41.5547],[-72.829,41.5554],[-72.8269,41.5522],[-72.8164,41.5668],[-72.8096,41.5711],[-72.8044,41.568],[-72.7969,41.5782],[-72.7907,41.5746],[-72.794,41.5683],[-72.7901,41.5641],[-72.7819,41.5629],[-72.7812,41.5597],[-72.7725,41.565],[-72.767,41.5735],[-72.7628,41.5733],[-72.755,41.5801],[-72.752,41.5771],[-72.7596,41.5584],[-72.7518,41.5615],[-72.7473,41.5578],[-72.7498,41.5492],[-72.7473,41.5492],[-72.7471,41.5441],[-72.7407,41.548],[-72.7388,41.5464],[-72.7444,41.5344],[-72.7381,41.5309],[-72.7471,41.5058],[-72.7516,41.5036],[-72.7567,41.4929],[-72.7674,41.4893],[-72.7735,41.4984],[-72.7778,41.4982],[-72.7861,41.4872],[-72.7882,41.4785],[-72.8033,41.4653],[-72.8106,41.4678],[-72.8137,41.4572],[-72.8242,41.4474],[-72.8295,41.451],[-72.8418,41.4515]]]]}},{"type":"Feature","id":"CONN","properties":{"id":"CONN","kind":"gauged","river":"Connecticut","watershed":"WS-Connecticut","usgs_id":"01184000"},"geometry":{"type":"MultiPolygon","coordinates":[[[[-72.6316,41.9765],[-72.6468,41.9892],[-72.6502,42.0494],[-72.6781,42.0795],[-72.7038,42.0846],[-72.7361,42.0192],[-72.7716,42.0042],[-72.7837,42.0272],[-72.8061,42.0172],[-72.8341,42.058],[-72.9029,42.04],[-72.9038,42.1032],[-72.9254,42.1131],[-72.9312,42.0866],[-73.0113,42.1246],[-73.0027,42.1396],[-73.0219,42.162],[-73.0099,42.1777],[-73.0312,42.2107],[-73.0249,42.2263],[-73.0798,42.2561],[-73.1062,42.3043],[-73.1178,42.2878],[-73.1568,42.3094],[-73.1609,42.3448],[-73.1421,42.3624],[-73.1568,42.3871],[-73.1005,42.3739],[-73.0615,42.4136],[-73.0343,42.4132],[-73.0532,42.4358],[-73.0477,42.4731],[-73.0679,42.4855],[-73.0364,42.5289],[-73.0679,42.5676],[-73.0546,42.6144],[-73.0753,42.6631],[-72.9996,42.8155],[-73.0486,42.8245],[-73.0622,42.8137],[-73.0833,42.8405],[-73.0532,42.8906],[-73.0722,42.9245],[-73.0566,42.9644],[-73.0726,42.9964],[-73.0093,43.0382],[-73.0169,43.0661],[-72.9815,43.1304],[-72.9934,43.1697],[-72.9427,43.2081],[-72.9269,43.3177],[-72.9082,43.3128],[-72.8746,43.3609],[-72.8596,43.3539],[-72.8435,43.374],[-72.7857,43.3807],[-72.798,43.4421],[-72.7756,43.4463],[-72.769,43.4809],[-72.7758,43.5059],[-72.8113,43.5253],[-72.8046,43.5841],[-72.8361,43.6394],[-72.83,43.6694],[-72.8571,43.6822],[-72.8886,43.7509],[-72.9712,43.8297],[-72.9631,43.8466],[-72.9815,43.8798],[-72.9421,43.9432],[-72.9359,43.9958],[-72.901,44.0314],[-72.8155,44.0376],[-72.8011,44.0566],[-72.8079,44.0773],[-72.7812,44.0992],[-72.7113,44.0919],[-72.7031,44.0792],[-72.7228,44.062],[-72.7105,44.0451],[-72.6664,44.0664],[-72.6357,44.0478],[-72.5802,44.1071],[-72.539,44.069],[-72.5114,44.074],[-72.4932,44.0982],[-72.3983,44.0727],[-72.4033,44.0958],[-72.3688,44.1315],[-72.3711,44.1518],[-72.336,44.1701],[-72.3498,44.1963],[-72.326,44.2064],[-72.356,44.234],[-72.3146,44.2429],[-72.326,44.2697],[-72.3072,44.2735],[-72.3355,44.3031],[-72.2963,44.3],[-72.2873,44.3238],[-72.2225,44.3215],[-72.2303,44.4056],[-72.2623,44.4119],[-72.2701,44.4347],[-72.2402,44.4511],[-72.2489,44.466],[-72.2243,44.519],[-72.1663,44.533],[-72.1775,44.5395],[-72.1809,44.6313],[-72.1947,44.6388],[-72.1832,44.6542],[-72.0716,44.6836],[-72.0535,44.7132],[-72.0255,44.7086],[-72.0312,44.7329],[-72.0065,44.7368],[-71.984,44.7684],[-71.8926,44.7506],[-71.8281,44.8226],[-71.8633,44.8568],[-71.8479,44.9205],[-71.8262,44.9069],[-71.7624,44.9416],[-71.7293,44.9244],[-71.7265,44.9415],[-71.6761,44.959],[-71.6557,44.942],[-71.6522,44.9587],[-71.7275,45.0283],[-71.6832,45.0907],[-71.6141,45.0943],[-71.6325,45.139],[-71.5731,45.1312],[-71.5617,45.1662],[-71.5156,45.1627],[-71.4862,45.2128],[-71.4656,45.2078],[-71.443,45.2385],[-71.3846,45.2341],[-71.3564,45.2543],[-71.3633,45.268],[-71.2835,45.3025],[-71.2284,45.2493],[-71.0854,45.2337],[-71.0726,45.2045],[-71.1012,45.1836],[-71.0873,45.1531],[-71.1038,45.1299],[-71.1406,45.1211],[-71.1467,45.0988],[-71.1719,45.0991],[-71.2059,45.0652],[-71.2392,44.9803],[-71.2774,44.9855],[-71.3006,44.9543],[-71.3168,44.9626],[-71.3414,44.9474],[-71.3208,44.9372],[-71.3129,44.9047],[-71.2797,44.8985],[-71.3182,44.836],[-71.3433,44.8335],[-71.314,44.8012],[-71.3099,44.756],[-71.2752,44.7354],[-71.3047,44.7049],[-71.2915,44.6375],[-71.2627,44.6245],[-71.2639,44.6076],[-71.1833,44.524],[-71.1845,44.5073],[-71.2633,44.5142],[-71.2859,44.4622],[-71.271,44.4362],[-71.2938,44.4046],[-71.3534,44.3695],[-71.3009,44.3258],[-71.3167,44.3075],[-71.3082,44.2607],[-71.3721,44.2212],[-71.4142,44.2184],[-71.4472,44.1898],[-71.5155,44.1979],[-71.5326,44.1684],[-71.5927,44.1941],[-71.6284,44.1832],[-71.6446,44.1609],[-71.6825,44.1748],[-71.735,44.1374],[-71.7748,44.0467],[-71.8267,44.0309],[-71.8501,43.9984],[-71.8729,44.0],[-71.901,43.976],[-71.9297,43.9861],[-71.9496,43.9479],[-71.9976,43.9542],[-72.0293,43.9351],[-72.0204,43.8779],[-71.996,43.8586],[-72.0005,43.8386],[-72.0111,43.8456],[-72.0322,43.8256],[-71.9782,43.7803],[-71.9884,43.7539],[-71.9518,43.7373],[-71.9485,43.6846],[-71.9159,43.6774],[-71.9104,43.6566],[-71.9181,43.6425],[-71.942,43.6473],[-71.9969,43.6227],[-71.9942,43.6001],[-72.0231,43.5927],[-72.0159,43.5321],[-71.996,43.5125],[-72.0209,43.4901],[-71.9924,43.4309],[-72.0286,43.4147],[-71.9908,43.3624],[-72.0355,43.3102],[-72.0648,43.3098],[-72.0794,43.235],[-72.1168,43.1861],[-72.1066,43.1551],[-72.1428,43.116],[-72.1057,43.054],[-72.1184,43.0455],[-72.1017,42.9966],[-72.1153,42.9502],[-72.066,42.9021],[-72.1177,42.8314],[-72.0724,42.7938],[-72.0504,42.7955],[-72.0452,42.7422],[-71.9881,42.7742],[-71.9784,42.7572],[-71.9155,42.7615],[-71.9195,42.732],[-71.8929,42.6965],[-71.9286,42.6746],[-71.907,42.6488],[-71.9431,42.6519],[-71.9391,42.6282],[-71.9682,42.633],[-71.9818,42.6068],[-71.9809,42.5888],[-71.9648,42.5983],[-71.9396,42.5606],[-71.944,42.5225],[-71.9107,42.519],[-71.8869,42.4705],[-71.9258,42.4765],[-71.9295,42.4139],[-71.9531,42.4085],[-71.9326,42.3833],[-71.9528,42.3755],[-71.9182,42.2819],[-71.9392,42.2699],[-71.9364,42.2504],[-71.9693,42.2562],[-71.9737,42.2071],[-72.0019,42.1739],[-72.0554,42.1754],[-72.0799,42.1549],[-72.0919,42.1666],[-72.1124,42.1441],[-72.1128,42.1829],[-72.1517,42.1936],[-72.2125,42.1531],[-72.2421,42.1229],[-72.2344,42.0621],[-72.2525,42.0355],[-72.2762,42.0383],[-72.2977,42.0646],[-72.3424,42.0419],[-72.3459,42.0863],[-72.4089,42.1195],[-72.4161,42.0891],[-72.4503,42.0668],[-72.4619,42.0755],[-72.4797,42.0631],[-72.4977,42.0852],[-72.5107,41.9987],[-72.5678,41.9733],[-72.6133,41.9894],[-72.6316,41.9765]]]]}},{"type":"Feature","id":"SHET","properties":{"id":"SHET","kind":"gauged","river":"Shetucket","watershed":"WS-Thames","usgs_id":"01122500"},"geometry":{"type":"MultiPolygon","coordinates":[[[[-72.2009,41.6726],[-72.203,41.6765],[-72.2166,41.6804],[-72.2164,41.6834],[-72.227,41.6904],[-72.2402,41.6849],[-72.2407,41.6816],[-72.2461,41.6831],[-72.2589,41.6766],[-72.2518,41.6671],[-72.2585,41.666],[-72.256,41.6559],[-72.2619,41.65],[-72.2696,41.6506],[-72.2716,41.6409],[-72.2776,41.6409],[-72.2772,41.6383],[-72.2933,41.6408],[-72.2952,41.6509],[-72.3044,41.6563],[-72.3074,41.6627],[-72.304,41.663],[-72.3037,41.6693],[-72.3101,41.6791],[-72.3225,41.6785],[-72.3253,41.6738],[-72.3366,41.6757],[-72.343,41.6843],[-72.3628,41.6934],[-72.3748,41.6941],[-72.379,41.6887],[-72.3866,41.6905],[-72.4045,41.705],[-72.4151,41.7047],[-72.4154,41.7009],[-72.4222,41.7024],[-72.427,41.6992],[-72.4417,41.7191],[-72.4332,41.7213],[-72.4368,41.7269],[-72.4339,41.7363],[-72.4414,41.7673],[-72.4373,41.7719],[-72.454,41.7781],[-72.4378,41.8084],[-72.4331,41.8099],[-72.4303,41.8229],[-72.4157,41.8347],[-72.4139,41.8422],[-72.4036,41.8428],[-72.401,41.8543],[-72.4036,41.8603],[-72.3974,41.8696],[-72.3897,41.8723],[-72.3872,41.8838],[-72.3818,41.8858],[-72.3815,41.8912],[-72.3717,41.8952],[-72.3743,41.8991],[-72.3667,41.9136],[-72.3795,41.9206],[-72.3754,41.9264],[-72.3891,41.9431],[-72.3873,41.9531],[-72.4028,41.9685],[-72.4028,41.9745],[-72.3928,41.9873],[-72.4009,41.9969],[-72.3929,42.009],[-72.3704,42.0117],[-72.37,42.0177],[-72.3558,42.0154],[-72.3455,42.0177],[-72.3452,42.0405],[-72.3385,42.0432],[-72.3348,42.0388],[-72.3248,42.0416],[-72.303,42.0545],[-72.3017,42.0642],[-72.2977,42.0646],[-72.284,42.0487],[-72.2788,42.0494],[-72.2762,42.0383],[-72.2684,42.0351],[-72.2525,42.0355],[-72.243,42.0419],[-72.2361,42.0574],[-72.2328,42.0567],[-72.2264,42.0423],[-72.22,42.0443],[-72.2185,42.0406],[-72.2215,42.0247],[-72.2168,42.0235],[-72.216,42.0198],[-72.2095,42.0198],[-72.2053,42.0248],[-72.2022,42.0218],[-72.1949,42.0229],[-72.1945,42.0169],[-72.199,42.0137],[-72.1927,42.0052],[-72.1871,42.0105],[-72.1843,42.0084],[-72.1895,41.9996],[-72.1853,41.9967],[-72.17,42.0019],[-72.1641,42.0091],[-72.1607,42.0052],[-72.1537,42.0157],[-72.1343,42.0212],[-72.1343,42.0291],[-72.1259,42.0388],[-72.1221,42.0342],[-72.1125,42.037],[-72.1137,42.025],[-72.1207,42.0198],[-72.1177,42.0144],[-72.1195,42.0084],[-72.1143,42.007],[-72.1107,42.0003],[-72.1008,41.9999],[-72.0884,41.9841],[-72.0768,41.9819],[-72.0695,41.9763],[-72.0644,41.9766],[-72.0665,41.9837],[-72.0604,41.9847],[-72.0642,41.9927],[-72.0589,41.9971],[-72.053,41.9923],[-72.0506,41.997],[-72.0357,41.9976],[-72.0334,41.969],[-72.0211,41.9608],[-72.021,41.9558],[-72.0288,41.9523],[-72.0307,41.9465],[-72.0271,41.9394],[-72.0333,41.93],[-72.0274,41.9209],[-72.0389,41.915],[-72.0343,41.8996],[-72.0411,41.8934],[-72.0449,41.8812],[-72.0423,41.8747],[-72.0512,41.8614],[-72.0498,41.8565],[-72.0545,41.8543],[-72.0564,41.8422],[-72.0637,41.8375],[-72.0613,41.8328],[-72.0694,41.8309],[-72.0695,41.8257],[-72.077,41.8215],[-72.0757,41.815],[-72.0859,41.8138],[-72.0878,41.8072],[-72.0944,41.8053],[-72.0928,41.7955],[-72.105,41.7805],[-72.0922,41.7676],[-72.1067,41.76],[-72.1095,41.7439],[-72.1265,41.7518],[-72.1441,41.744],[-72.1476,41.7346],[-72.1603,41.7235],[-72.1523,41.7017],[-72.1679,41.6974],[-72.1722,41.6994],[-72.1733,41.6963],[-72.1681,41.6917],[-72.1915,41.6736],[-72.198,41.6703],[-72.2009,41.6726]]]]}},{"type":"Feature","id":"YANT","properties":{"id":"YANT","kind":"gauged","river":"Yantic","watershed":"WS-Thames","usgs_id":"01127500"},"geometry":{"type":"MultiPolygon","coordinates":[[[[-72.2413,41.5001],[-72.242,41.504],[-72.2537,41.5139],[-72.259,41.5122],[-72.262,41.5156],[-72.2779,41.516],[-72.2792,41.5242],[-72.2871,41.5307],[-72.2932,41.5308],[-72.3061,41.5449],[-72.307,41.5494],[-72.3031,41.5539],[-72.3061,41.5709],[-72.32,41.5749],[-72.3268,41.5916],[-72.3179,41.592],[-72.3205,41.602],[-72.3177,41.6062],[-72.3213,41.6094],[-72.3176,41.6108],[-72.3198,41.6147],[-72.3178,41.62],[-72.3208,41.6233],[-72.3185,41.626],[-72.3248,41.6371],[-72.3309,41.6377],[-72.3263,41.6449],[-72.3279,41.6504],[-72.3214,41.6559],[-72.3281,41.6607],[-72.3225,41.6785],[-72.3139,41.6801],[-72.3078,41.6767],[-72.3036,41.6647],[-72.3074,41.6627],[-72.3044,41.6563],[-72.2952,41.6509],[-72.2942,41.6414],[-72.2772,41.6383],[-72.2776,41.6409],[-72.2716,41.6409],[-72.2687,41.6446],[-72.2696,41.6506],[-72.2619,41.65],[-72.256,41.6559],[-72.2585,41.666],[-72.2538,41.6657],[-72.2518,41.6696],[-72.2589,41.6766],[-72.2461,41.6831],[-72.2407,41.6816],[-72.2402,41.6849],[-72.2258,41.6904],[-72.2164,41.6834],[-72.2166,41.6804],[-72.2008,41.6752],[-72.198,41.6703],[-72.2012,41.6612],[-72.1996,41.6561],[-72.186,41.6503],[-72.182,41.6532],[-72.175,41.6498],[-72.1733,41.6431],[-72.1636,41.6366],[-72.1632,41.631],[-72.1576,41.6267],[-72.159,41.6229],[-72.1545,41.6176],[-72.1489,41.6164],[-72.1512,41.6126],[-72.1492,41.6048],[-72.1237,41.5927],[-72.117,41.5812],[-72.1081,41.5777],[-72.1132,41.5713],[-72.1091,41.5645],[-72.1108,41.5565],[-72.1253,41.5543],[-72.1362,41.5456],[-72.1398,41.538],[-72.1492,41.5342],[-72.1633,41.5374],[-72.1708,41.535],[-72.1671,41.5204],[-72.1902,41.5289],[-72.2023,41.528],[-72.2068,41.5248],[-72.202,41.5133],[-72.2094,41.5068],[-72.1964,41.5084],[-72.198,41.5022],[-72.1929,41.4958],[-72.2094,41.4934],[-72.2189,41.4985],[-72.2352,41.4945],[-72.2423,41.4973],[-72.2413,41.5001]]]]}},{"type":"Feature","id":"QNBG","properties":{"id":"QNBG","kind":"gauged","river":"Quinebaug","watershed":"WS-Thames","usgs_id":"01127000"},"geometry":{"type":"MultiPolygon","coordinates":[[[[-72.0107,41.6083],[-72.0004,41.6245],[-72.013,41.6346],[-72.0105,41.6518],[-72.0228,41.654],[-72.03,41.6637],[-72.0199,41.6759],[-72.0303,41.7018],[-72.0142,41.7373],[-72.0287,41.7517],[-72.0279,41.7728],[-72.0179,41.776],[-72.0174,41.7927],[-72.02,41.8005],[-72.0389,41.8106],[-72.0283,41.8256],[-72.0429,41.8336],[-72.0402,41.8447],[-72.0525,41.8395],[-72.0573,41.8473],[-72.0343,41.8996],[-72.0389,41.915],[-72.0274,41.9209],[-72.0333,41.93],[-72.0271,41.9394],[-72.0302,41.9483],[-72.021,41.9558],[-72.0334,41.969],[-72.0357,41.9976],[-72.053,41.9923],[-72.0591,41.9969],[-72.0644,41.9766],[-72.0884,41.9841],[-72.1008,41.9999],[-72.1195,42.0084],[-72.1207,42.0202],[-72.1116,42.0348],[-72.1246,42.0392],[-72.1343,42.0212],[-72.1883,41.9972],[-72.1843,42.0084],[-72.1955,42.0087],[-72.1949,42.0229],[-72.2174,42.0204],[-72.22,42.0443],[-72.2264,42.0423],[-72.2368,42.0673],[-72.244,42.069],[-72.2383,42.0768],[-72.2416,42.0964],[-72.237,42.1058],[-72.2421,42.1229],[-72.1947,42.1654],[-72.1687,42.1713],[-72.1656,42.184],[-72.1616,42.1816],[-72.1517,42.1936],[-72.1446,42.193],[-72.1433,42.1816],[-72.1128,42.1829],[-72.1212,42.1599],[-72.1124,42.1441],[-72.0919,42.1666],[-72.0839,42.1661],[-72.0866,42.1549],[-72.0799,42.1549],[-72.0709,42.157],[-72.0554,42.1754],[-72.0531,42.1705],[-72.0428,42.1746],[-72.0363,42.1663],[-72.0142,42.1838],[-72.0019,42.1739],[-71.9835,42.2031],[-71.9737,42.2071],[-71.9812,42.2198],[-71.9693,42.2562],[-71.9483,42.2567],[-71.9364,42.2504],[-71.9307,42.2635],[-71.9392,42.2699],[-71.9218,42.2813],[-71.9105,42.2746],[-71.9162,42.2618],[-71.8939,42.2444],[-71.8886,42.2304],[-71.8881,42.2141],[-71.8966,42.2027],[-71.8895,42.2013],[-71.893,42.1934],[-71.8865,42.1796],[-71.8742,42.1783],[-71.8656,42.1666],[-71.8391,42.1687],[-71.8406,42.1634],[-71.8311,42.1591],[-71.8327,42.1512],[-71.8123,42.1345],[-71.8126,42.103],[-71.822,42.0945],[-71.814,42.0888],[-71.8247,42.0853],[-71.8208,42.0818],[-71.8269,42.0775],[-71.8202,42.0687],[-71.8252,42.0659],[-71.8134,42.0602],[-71.8134,42.0452],[-71.7851,42.0494],[-71.7847,42.0389],[-71.7689,42.0427],[-71.7607,42.0296],[-71.7601,42.0223],[-71.7717,42.0261],[-71.7809,42.0098],[-71.7788,41.9973],[-71.7683,41.9922],[-71.7776,41.9757],[-71.7704,41.9633],[-71.7749,41.9563],[-71.7448,41.9348],[-71.7539,41.9282],[-71.7507,41.9149],[-71.7597,41.9075],[-71.7559,41.8873],[-71.7673,41.8751],[-71.7617,41.869],[-71.7692,41.855],[-71.7791,41.8512],[-71.7772,41.8414],[-71.7823,41.8414],[-71.7681,41.8089],[-71.771,41.7949],[-71.7531,41.7896],[-71.7337,41.774],[-71.722,41.7764],[-71.7108,41.7696],[-71.719,41.7546],[-71.7134,41.736],[-71.7201,41.7206],[-71.6912,41.6993],[-71.6903,41.6818],[-71.7075,41.6738],[-71.6953,41.6587],[-71.7287,41.6526],[-71.7319,41.6471],[-71.7631,41.6631],[-71.7806,41.6635],[-71.791,41.6816],[-71.8056,41.6766],[-71.8065,41.6577],[-71.8184,41.6662],[-71.8356,41.6626],[-71.8408,41.6713],[-71.8487,41.6691],[-71.8474,41.6409],[-71.8035,41.6304],[-71.7982,41.6231],[-71.8008,41.6142],[-71.7914,41.6063],[-71.7952,41.5954],[-71.7847,41.5941],[-71.77,41.5718],[-71.7797,41.562],[-71.8126,41.5577],[-71.8194,41.5514],[-71.8291,41.5072],[-71.8445,41.5052],[-71.8601,41.5123],[-71.863,41.504],[-71.8718,41.4999],[-71.882,41.5038],[-71.8845,41.4952],[-71.898,41.4869],[-71.906,41.5106],[-71.8935,41.5162],[-71.8943,41.5259],[-71.9165,41.5378],[-71.9207,41.5474],[-71.9387,41.5515],[-71.9459,41.5602],[-71.9399,41.5714],[-71.9509,41.5694],[-71.9519,41.584],[-71.9659,41.5907],[-71.9766,41.5856],[-71.9935,41.5982],[-72.0038,41.5956],[-72.0107,41.6083]]]]}}]}